start=new Date('2022-06-28T00:00:00.000Z').valueOf();
sats=[{"OBJECT_TYPE":"PAYLOAD","ARG_OF_PERICENTER":"65.5857","FILE":"3504144","OBJECT_ID":"2020-012AN","LAUNCH_DATE":"2020-02-17","RA_OF_ASC_NODE":"331.3202","TLE_LINE1":"1 45214U 20012AN  22178.72616671  .00000114  00000-0  26559-4 0  9994","SEMIMAJOR_AXIS":"6925.381","ELEMENT_SET_NO":"999","NORAD_CAT_ID":"45214","REF_FRAME":"TEME","DECAY_DATE":null,"GP_ID":"206988377","INCLINATION":"53.0560","PERIOD":"95.593","MEAN_ANOMALY":"294.5298","ECCENTRICITY":"0.00016010","CLASSIFICATION_TYPE":"U","MEAN_MOTION_DDOT":"0.0000000000000","COUNTRY_CODE":"US","MEAN_MOTION":"15.06389328","SITE":"AFETR","EPHEMERIS_TYPE":"0","REV_AT_EPOCH":"13149","TLE_LINE2":"2 45214  53.0560 331.3202 0001601  65.5857 294.5298 15.06389328131497","TIME_SYSTEM":"UTC","CENTER_NAME":"EARTH","EPOCH":"2022-06-27T17:25:40.803744","MEAN_ELEMENT_THEORY":"SGP4","RCS_SIZE":"LARGE","MEAN_MOTION_DOT":"0.00000114","PERIAPSIS":"546.138","APOAPSIS":"548.355","BSTAR":"0.00002655900000","OBJECT_NAME":"STARLINK-1233"},{"RCS_SIZE":"LARGE","MEAN_ELEMENT_THEORY":"SGP4","PERIAPSIS":"546.265","MEAN_MOTION_DOT":"-0.00001164","BSTAR":"-0.00005930900000","APOAPSIS":"548.247","OBJECT_NAME":"STARLINK-1245","TLE_LINE2":"2 45215  53.0566 331.3430 0001431  67.0252 293.0888 15.06386018131430","REV_AT_EPOCH":"13143","CENTER_NAME":"EARTH","TIME_SYSTEM":"UTC","EPOCH":"2022-06-27T17:21:44.142912","CLASSIFICATION_TYPE":"U","ECCENTRICITY":"0.00014310","MEAN_MOTION_DDOT":"0.0000000000000","MEAN_MOTION":"15.06386018","COUNTRY_CODE":"US","EPHEMERIS_TYPE":"0","SITE":"AFETR","INCLINATION":"53.0566","GP_ID":"206988627","PERIOD":"95.593","MEAN_ANOMALY":"293.0888","TLE_LINE1":"1 45215U 20012AP  22178.72342758 -.00001164  00000-0 -59309-4 0  9994","RA_OF_ASC_NODE":"331.3430","SEMIMAJOR_AXIS":"6925.391","ELEMENT_SET_NO":"999","NORAD_CAT_ID":"45215","REF_FRAME":"TEME","DECAY_DATE":null,"OBJECT_ID":"2020-012AP","LAUNCH_DATE":"2020-02-17","FILE":"3504144","ARG_OF_PERICENTER":"67.0252","OBJECT_TYPE":"PAYLOAD"},{"FILE":"3504144","OBJECT_TYPE":"PAYLOAD","ARG_OF_PERICENTER":"70.6256","NORAD_CAT_ID":"45217","DECAY_DATE":null,"REF_FRAME":"TEME","RA_OF_ASC_NODE":"331.4664","TLE_LINE1":"1 45217U 20012AR  22178.69761390  .00000544  00000-0  55398-4 0  9992","SEMIMAJOR_AXIS":"6925.334","ELEMENT_SET_NO":"999","OBJECT_ID":"2020-012AR","LAUNCH_DATE":"2020-02-17","COUNTRY_CODE":"US","MEAN_MOTION":"15.06404632","SITE":"AFETR","EPHEMERIS_TYPE":"0","CLASSIFICATION_TYPE":"U","ECCENTRICITY":"0.00014530","MEAN_MOTION_DDOT":"0.0000000000000","PERIOD":"95.592","MEAN_ANOMALY":"289.4890","INCLINATION":"53.0572","GP_ID":"206989379","APOAPSIS":"548.206","BSTAR":"0.00005539800000","OBJECT_NAME":"STARLINK-1271","MEAN_ELEMENT_THEORY":"SGP4","RCS_SIZE":"LARGE","MEAN_MOTION_DOT":"0.00000544","PERIAPSIS":"546.193","TIME_SYSTEM":"UTC","CENTER_NAME":"EARTH","EPOCH":"2022-06-27T16:44:33.840960","REV_AT_EPOCH":"13149","TLE_LINE2":"2 45217  53.0572 331.4664 0001453  70.6256 289.4890 15.06404632131498"},{"LAUNCH_DATE":"2020-02-17","OBJECT_ID":"2020-012AT","ELEMENT_SET_NO":"999","SEMIMAJOR_AXIS":"6925.349","RA_OF_ASC_NODE":"311.4723","TLE_LINE1":"1 45219U 20012AT  22178.69577870  .00002014  00000-0  15409-3 0  9994","DECAY_DATE":null,"REF_FRAME":"TEME","NORAD_CAT_ID":"45219","OBJECT_TYPE":"PAYLOAD","ARG_OF_PERICENTER":"73.3361","FILE":"3504144","REV_AT_EPOCH":"13178","TLE_LINE2":"2 45219  53.0565 311.4723 0001347  73.3361 286.7776 15.06399979131787","EPOCH":"2022-06-27T16:41:55.279680","TIME_SYSTEM":"UTC","CENTER_NAME":"EARTH","MEAN_MOTION_DOT":"0.00002014","PERIAPSIS":"546.281","MEAN_ELEMENT_THEORY":"SGP4","RCS_SIZE":"LARGE","OBJECT_NAME":"STARLINK-1187","APOAPSIS":"548.146","BSTAR":"0.00015409000000","GP_ID":"206989625","INCLINATION":"53.0565","MEAN_ANOMALY":"286.7776","PERIOD":"95.592","MEAN_MOTION_DDOT":"0.0000000000000","CLASSIFICATION_TYPE":"U","ECCENTRICITY":"0.00013470","SITE":"AFETR","EPHEMERIS_TYPE":"0","COUNTRY_CODE":"US","MEAN_MOTION":"15.06399979"},{"CENTER_NAME":"EARTH","TIME_SYSTEM":"UTC","EPOCH":"2022-06-27T16:47:14.035200","TLE_LINE2":"2 45221  53.0548 311.4626 0001276  74.8626 285.2504 15.06387504131777","REV_AT_EPOCH":"13177","BSTAR":"0.00003575100000","APOAPSIS":"548.136","OBJECT_NAME":"STARLINK-1189","RCS_SIZE":"LARGE","MEAN_ELEMENT_THEORY":"SGP4","PERIAPSIS":"546.368","MEAN_MOTION_DOT":"0.00000251","PERIOD":"95.593","MEAN_ANOMALY":"285.2504","INCLINATION":"53.0548","GP_ID":"206988877","MEAN_MOTION":"15.06387504","COUNTRY_CODE":"US","EPHEMERIS_TYPE":"0","SITE":"AFETR","ECCENTRICITY":"0.00012760","CLASSIFICATION_TYPE":"U","MEAN_MOTION_DDOT":"0.0000000000000","OBJECT_ID":"2020-012AV","LAUNCH_DATE":"2020-02-17","NORAD_CAT_ID":"45221","REF_FRAME":"TEME","DECAY_DATE":null,"RA_OF_ASC_NODE":"311.4626","TLE_LINE1":"1 45221U 20012AV  22178.69946800  .00000251  00000-0  35751-4 0  9994","SEMIMAJOR_AXIS":"6925.387","ELEMENT_SET_NO":"999","ARG_OF_PERICENTER":"74.8626","OBJECT_TYPE":"PAYLOAD","FILE":"3504144"},{"FILE":"3504144","OBJECT_TYPE":"PAYLOAD","ARG_OF_PERICENTER":"60.2547","NORAD_CAT_ID":"45222","REF_FRAME":"TEME","DECAY_DATE":null,"TLE_LINE1":"1 45222U 20012AW  22178.64049380 -.00000374  00000-0 -62012-5 0  9996","RA_OF_ASC_NODE":"311.7045","SEMIMAJOR_AXIS":"6925.379","ELEMENT_SET_NO":"999","OBJECT_ID":"2020-012AW","LAUNCH_DATE":"2020-02-17","COUNTRY_CODE":"US","MEAN_MOTION":"15.06390145","SITE":"AFETR","EPHEMERIS_TYPE":"0","CLASSIFICATION_TYPE":"U","ECCENTRICITY":"0.00015320","MEAN_MOTION_DDOT":"0.0000000000000","MEAN_ANOMALY":"299.8594","PERIOD":"95.593","INCLINATION":"53.0551","GP_ID":"206989127","APOAPSIS":"548.305","BSTAR":"-0.00000620120000","OBJECT_NAME":"STARLINK-1191","MEAN_ELEMENT_THEORY":"SGP4","RCS_SIZE":"LARGE","MEAN_MOTION_DOT":"-0.00000374","PERIAPSIS":"546.183","TIME_SYSTEM":"UTC","CENTER_NAME":"EARTH","EPOCH":"2022-06-27T15:22:18.664320","REV_AT_EPOCH":"13176","TLE_LINE2":"2 45222  53.0551 311.7045 0001532  60.2547 299.8594 15.06390145131760"},{"DECAY_DATE":null,"REF_FRAME":"TEME","NORAD_CAT_ID":"45223","SEMIMAJOR_AXIS":"6925.365","ELEMENT_SET_NO":"999","RA_OF_ASC_NODE":"311.6117","TLE_LINE1":"1 45223U 20012AX  22178.66165898 -.00000961  00000-0 -45659-4 0  9991","LAUNCH_DATE":"2020-02-17","OBJECT_ID":"2020-012AX","FILE":"3504144","OBJECT_TYPE":"PAYLOAD","ARG_OF_PERICENTER":"57.6133","OBJECT_NAME":"STARLINK-1212","APOAPSIS":"548.393","BSTAR":"-0.00004565900000","MEAN_MOTION_DOT":"-0.00000961","PERIAPSIS":"546.067","MEAN_ELEMENT_THEORY":"SGP4","RCS_SIZE":"LARGE","EPOCH":"2022-06-27T15:52:47.335872","TIME_SYSTEM":"UTC","CENTER_NAME":"EARTH","REV_AT_EPOCH":"13177","TLE_LINE2":"2 45223  53.0545 311.6117 0001679  57.6133 302.5018 15.06394554131778","SITE":"AFETR","EPHEMERIS_TYPE":"0","COUNTRY_CODE":"US","MEAN_MOTION":"15.06394554","MEAN_MOTION_DDOT":"0.0000000000000","CLASSIFICATION_TYPE":"U","ECCENTRICITY":"0.00016790","PERIOD":"95.592","MEAN_ANOMALY":"302.5018","INCLINATION":"53.0545","GP_ID":"206989879"},{"REV_AT_EPOCH":"13172","TLE_LINE2":"2 45225  53.0561 311.5241 0001759  58.3914 301.7247 15.06391998131728","CENTER_NAME":"EARTH","TIME_SYSTEM":"UTC","EPOCH":"2022-06-27T16:20:41.770464","MEAN_ELEMENT_THEORY":"SGP4","RCS_SIZE":"LARGE","MEAN_MOTION_DOT":"-0.00000477","PERIAPSIS":"546.020","APOAPSIS":"548.456","BSTAR":"-0.00001311400000","OBJECT_NAME":"STARLINK-1215","INCLINATION":"53.0561","GP_ID":"206990125","PERIOD":"95.593","MEAN_ANOMALY":"301.7247","CLASSIFICATION_TYPE":"U","ECCENTRICITY":"0.00017590","MEAN_MOTION_DDOT":"0.0000000000000","COUNTRY_CODE":"US","MEAN_MOTION":"15.06391998","SITE":"AFETR","EPHEMERIS_TYPE":"0","OBJECT_ID":"2020-012AZ","LAUNCH_DATE":"2020-02-17","TLE_LINE1":"1 45225U 20012AZ  22178.68103901 -.00000477  00000-0 -13114-4 0  9995","RA_OF_ASC_NODE":"311.5241","ELEMENT_SET_NO":"999","SEMIMAJOR_AXIS":"6925.373","NORAD_CAT_ID":"45225","REF_FRAME":"TEME","DECAY_DATE":null,"OBJECT_TYPE":"PAYLOAD","ARG_OF_PERICENTER":"58.3914","FILE":"3504144"},{"LAUNCH_DATE":"2020-02-17","OBJECT_ID":"2020-012BA","SEMIMAJOR_AXIS":"6925.349","ELEMENT_SET_NO":"999","RA_OF_ASC_NODE":"311.5017","TLE_LINE1":"1 45226U 20012BA  22178.68840145 -.00000215  00000-0  44431-5 0  9990","REF_FRAME":"TEME","DECAY_DATE":null,"NORAD_CAT_ID":"45226","OBJECT_TYPE":"PAYLOAD","ARG_OF_PERICENTER":"84.0581","FILE":"3504144","REV_AT_EPOCH":"13168","TLE_LINE2":"2 45226  53.0579 311.5017 0001608  84.0581 276.0591 15.06399901131681","EPOCH":"2022-06-27T16:31:17.885280","TIME_SYSTEM":"UTC","CENTER_NAME":"EARTH","MEAN_MOTION_DOT":"-0.00000215","PERIAPSIS":"546.100","MEAN_ELEMENT_THEORY":"SGP4","RCS_SIZE":"LARGE","OBJECT_NAME":"STARLINK-1217","APOAPSIS":"548.327","BSTAR":"0.00000444310000","INCLINATION":"53.0579","GP_ID":"206988378","PERIOD":"95.592","MEAN_ANOMALY":"276.0591","MEAN_MOTION_DDOT":"0.0000000000000","CLASSIFICATION_TYPE":"U","ECCENTRICITY":"0.00016080","SITE":"AFETR","EPHEMERIS_TYPE":"0","COUNTRY_CODE":"US","MEAN_MOTION":"15.06399901"},{"FILE":"3504144","ARG_OF_PERICENTER":"72.7968","OBJECT_TYPE":"PAYLOAD","SEMIMAJOR_AXIS":"6925.338","ELEMENT_SET_NO":"999","TLE_LINE1":"1 45227U 20012BB  22178.64416644 -.00000941  00000-0 -44292-4 0  9991","RA_OF_ASC_NODE":"311.6925","DECAY_DATE":null,"REF_FRAME":"TEME","NORAD_CAT_ID":"45227","LAUNCH_DATE":"2020-02-17","OBJECT_ID":"2020-012BB","MEAN_MOTION_DDOT":"0.0000000000000","ECCENTRICITY":"0.00014250","CLASSIFICATION_TYPE":"U","EPHEMERIS_TYPE":"0","SITE":"AFETR","MEAN_MOTION":"15.06403430","COUNTRY_CODE":"US","INCLINATION":"53.0569","GP_ID":"206988628","PERIOD":"95.592","MEAN_ANOMALY":"287.3177","PERIAPSIS":"546.216","MEAN_MOTION_DOT":"-0.00000941","RCS_SIZE":"LARGE","MEAN_ELEMENT_THEORY":"SGP4","OBJECT_NAME":"STARLINK-1221","BSTAR":"-0.00004429200000","APOAPSIS":"548.190","TLE_LINE2":"2 45227  53.0569 311.6925 0001425  72.7968 287.3177 15.06403430131688","REV_AT_EPOCH":"13168","EPOCH":"2022-06-27T15:27:35.980416","TIME_SYSTEM":"UTC","CENTER_NAME":"EARTH"}];
